{"type": "FeatureCollection", "features": [ {"type": "Feature", "properties": {"norad_id": 32186, "name": "FENGYUN 1C DEB", "group": "fengyun-1c-debris", "lat": 29.809412227062374, "lon": -141.00179097766002, "alt_km": 872.0457847855832, "timestamp": "2025-12-08T23:34:04.255510+00:00", "meta": {"OBJECT_NAME": "FENGYUN 1C DEB", "OBJECT_ID": "1999-025CUG", "EPOCH": "2025-12-07T10:16:26.641632", "MEAN_MOTION": 13.76491399, "ECCENTRICITY": 0.02744941, "INCLINATION": 99.6094, "RA_OF_ASC_NODE": 31.8583, "ARG_OF_PERICENTER": 214.4803, "MEAN_ANOMALY": 161.7131, "EPHEMERIS_TYPE": 0, "CLASSIFICATION_TYPE": "U", "NORAD_CAT_ID": 32186, "ELEMENT_SET_NO": 999, "REV_AT_EPOCH": 62537, "BSTAR": 0.0016599073, "MEAN_MOTION_DOT": 2.096e-05, "MEAN_MOTION_DDOT": 0}, "tle": {"line1": "1 32186U 99025CUG 25341.42808613  .00002096  00000+0  16599-2 0  9990", "line2": "2 32186  99.6094  31.8583 0274494 214.4803 161.7131 13.76491399625374"}}, "geometry": {"type": "Point", "coordinates": [-141.00179097766002, 29.809412227062374]}}, {"type": "Feature", "properties": {"norad_id": 32187, "name": "FENGYUN 1C DEB", "group": "fengyun-1c-debris", "lat": -48.40640580540896, "lon": 72.97802684087821, "alt_km": 1275.4988690412292, "timestamp": "2025-12-08T23:34:04.255521+00:00", "meta": {"OBJECT_NAME": "FENGYUN 1C DEB", "OBJECT_ID": "1999-025CUH", "EPOCH": "2025-12-07T10:47:50.080416", "MEAN_MOTION": 13.50489719, "ECCENTRICITY": 0.02942517, "INCLINATION": 99.5045, "RA_OF_ASC_NODE": 60.6344, "ARG_OF_PERICENTER": 159.1155, "MEAN_ANOMALY": 265.3027, "EPHEMERIS_TYPE": 0, "CLASSIFICATION_TYPE": "U", "NORAD_CAT_ID": 32187, "ELEMENT_SET_NO": 999, "REV_AT_EPOCH": 66187, "BSTAR": 0.0008719815, "MEAN_MOTION_DOT": 6.91e-06, "MEAN_MOTION_DDOT": 0}, "tle": {"line1": "1 32187U 99025CUH 25341.44988519  .00000691  00000+0  87198-3 0  9990", "line2": "2 32187  99.5045  60.6344 0294251 159.1155 265.3027 13.50489719661878"}}, "geometry": {"type": "Point", "coordinates": [72.97802684087821, -48.40640580540896]}}, {"type": "Feature", "properties": {"norad_id": 32191, "name": "FENGYUN 1C DEB", "group": "fengyun-1c-debris", "lat": 49.00325263925813, "lon": -130.7308148185384, "alt_km": 776.8294351461909, "timestamp": "2025-12-08T23:34:04.255531+00:00", "meta": {"OBJECT_NAME": "FENGYUN 1C DEB", "OBJECT_ID": "1999-025CUM", "EPOCH": "2025-12-07T21:40:40.928736", "MEAN_MOTION": 14.25144424, "ECCENTRICITY": 0.00936775, "INCLINATION": 98.7071, "RA_OF_ASC_NODE": 38.0439, "ARG_OF_PERICENTER": 200.4354, "MEAN_ANOMALY": 159.3067, "EPHEMERIS_TYPE": 0, "CLASSIFICATION_TYPE": "U", "NORAD_CAT_ID": 32191, "ELEMENT_SET_NO": 999, "REV_AT_EPOCH": 64432, "BSTAR": 0.0020420613, "MEAN_MOTION_DOT": 4.976e-05, "MEAN_MOTION_DDOT": 0}, "tle": {"line1": "1 32191U 99025CUM 25341.90325149  .00004976  00000+0  20421-2 0  9995", "line2": "2 32191  98.7071  38.0439 0093677 200.4354 159.3067 14.25144424644328"}}, "geometry": {"type": "Point", "coordinates": [-130.7308148185384, 49.00325263925813]}}, {"type": "Feature", "properties": {"norad_id": 32192, "name": "FENGYUN 1C DEB", "group": "fengyun-1c-debris", "lat": 55.13403605672119, "lon": 46.785334757894645, "alt_km": 860.6693916626864, "timestamp": "2025-12-08T23:34:04.255541+00:00", "meta": {"OBJECT_NAME": "FENGYUN 1C DEB", "OBJECT_ID": "1999-025CUN", "EPOCH": "2025-12-08T02:07:16.367232", "MEAN_MOTION": 13.82507445, "ECCENTRICITY": 0.01815026, "INCLINATION": 98.6533, "RA_OF_ASC_NODE": 213.3391, "ARG_OF_PERICENTER": 175.0666, "MEAN_ANOMALY": 185.2333, "EPHEMERIS_TYPE": 0, "CLASSIFICATION_TYPE": "U", "NORAD_CAT_ID": 32192, "ELEMENT_SET_NO": 999, "REV_AT_EPOCH": 92648, "BSTAR": 0.00039774017, "MEAN_MOTION_DOT": 4.5e-06, "MEAN_MOTION_DDOT": 0}, "tle": {"line1": "1 32192U 99025CUN 25342.08838388  .00000450  00000+0  39774-3 0  9995", "line2": "2 32192  98.6533 213.3391 0181502 175.0666 185.2333 13.82507445926486"}}, "geometry": {"type": "Point", "coordinates": [46.785334757894645, 55.13403605672119]}}, {"type": "Feature", "properties": {"norad_id": 32195, "name": "FENGYUN 1C DEB", "group": "fengyun-1c-debris", "lat": 37.448694847280116, "lon": -21.29603611332831, "alt_km": 858.8828525459912, "timestamp": "2025-12-08T23:34:04.255552+00:00", "meta": {"OBJECT_NAME": "FENGYUN 1C DEB", "OBJECT_ID": "1999-025CUR", "EPOCH": "2025-12-04T06:51:46.584576", "MEAN_MOTION": 14.08440247, "ECCENTRICITY": 0.0068891, "INCLINATION": 98.773, "RA_OF_ASC_NODE": 340.9294, "ARG_OF_PERICENTER": 324.3515, "MEAN_ANOMALY": 35.3064, "EPHEMERIS_TYPE": 0, "CLASSIFICATION_TYPE": "U", "NORAD_CAT_ID": 32195, "ELEMENT_SET_NO": 999, "REV_AT_EPOCH": 63863, "BSTAR": 0.0010039, "MEAN_MOTION_DOT": 1.715e-05, "MEAN_MOTION_DDOT": 0}, "tle": {"line1": "1 32195U 99025CUR 25338.28595584  .00001715  00000+0  10039-2 0  9990", "line2": "2 32195  98.7730 340.9294 0068891 324.3515  35.3064 14.08440247638633"}}, "geometry": {"type": "Point", "coordinates": [-21.29603611332831, 37.448694847280116]}}, {"type": "Feature", "properties": {"norad_id": 32197, "name": "FENGYUN 1C DEB", "group": "fengyun-1c-debris", "lat": -9.970147136311015, "lon": 70.38035855594983, "alt_km": 713.2376762974163, "timestamp": "2025-12-08T23:34:04.255562+00:00", "meta": {"OBJECT_NAME": "FENGYUN 1C DEB", "OBJECT_ID": "1999-025CUT", "EPOCH": "2025-12-08T00:57:21.814848", "MEAN_MOTION": 14.32647927, "ECCENTRICITY": 0.01611856, "INCLINATION": 98.9013, "RA_OF_ASC_NODE": 250.9914, "ARG_OF_PERICENTER": 243.7219, "MEAN_ANOMALY": 131.2163, "EPHEMERIS_TYPE": 0, "CLASSIFICATION_TYPE": "U", "NORAD_CAT_ID": 32197, "ELEMENT_SET_NO": 999, "REV_AT_EPOCH": 94356, "BSTAR": 0.00062877937, "MEAN_MOTION_DOT": 1.922e-05, "MEAN_MOTION_DDOT": 0}, "tle": {"line1": "1 32197U 99025CUT 25342.03983582  .00001922  00000+0  62878-3 0  9998", "line2": "2 32197  98.9013 250.9914 0161185 243.7219 131.2163 14.32647927943563"}}, "geometry": {"type": "Point", "coordinates": [70.38035855594983, -9.970147136311015]}}, {"type": "Feature", "properties": {"norad_id": 32198, "name": "FENGYUN 1C DEB", "group": "fengyun-1c-debris", "lat": 22.32234845873551, "lon": -46.400244260024536, "alt_km": 919.8130133852301, "timestamp": "2025-12-08T23:34:04.255573+00:00", "meta": {"OBJECT_NAME": "FENGYUN 1C DEB", "OBJECT_ID": "1999-025CUU", "EPOCH": "2025-12-05T16:24:25.007328", "MEAN_MOTION": 14.08762004, "ECCENTRICITY": 0.00945405, "INCLINATION": 98.3435, "RA_OF_ASC_NODE": 127.0916, "ARG_OF_PERICENTER": 312.942, "MEAN_ANOMALY": 46.3848, "EPHEMERIS_TYPE": 0, "CLASSIFICATION_TYPE": "U", "NORAD_CAT_ID": 32198, "ELEMENT_SET_NO": 999, "REV_AT_EPOCH": 56846, "BSTAR": 0.0028001199, "MEAN_MOTION_DOT": 4.993e-05, "MEAN_MOTION_DDOT": 0}, "tle": {"line1": "1 32198U 99025CUU 25339.68362277  .00004993  00000+0  28001-2 0  9998", "line2": "2 32198  98.3435 127.0916 0094540 312.9420  46.3848 14.08762004568460"}}, "geometry": {"type": "Point", "coordinates": [-46.400244260024536, 22.32234845873551]}}, {"type": "Feature", "properties": {"norad_id": 32200, "name": "FENGYUN 1C DEB", "group": "fengyun-1c-debris", "lat": -22.302493081042527, "lon": 35.64503681642191, "alt_km": 822.4299953175532, "timestamp": "2025-12-08T23:34:04.255583+00:00", "meta": {"OBJECT_NAME": "FENGYUN 1C DEB", "OBJECT_ID": "1999-025CUW", "EPOCH": "2025-12-08T10:06:13.411584", "MEAN_MOTION": 14.15674101, "ECCENTRICITY": 0.00394874, "INCLINATION": 98.7916, "RA_OF_ASC_NODE": 31.4523, "ARG_OF_PERICENTER": 302.3884, "MEAN_ANOMALY": 57.3471, "EPHEMERIS_TYPE": 0, "CLASSIFICATION_TYPE": "U", "NORAD_CAT_ID": 32200, "ELEMENT_SET_NO": 999, "REV_AT_EPOCH": 94302, "BSTAR": 0.0016895346, "MEAN_MOTION_DOT": 3.294e-05, "MEAN_MOTION_DDOT": 0}, "tle": {"line1": "1 32200U 99025CUW 25342.42098856  .00003294  00000+0  16895-2 0  9998", "line2": "2 32200  98.7916  31.4523 0039487 302.3884  57.3471 14.15674101943021"}}, "geometry": {"type": "Point", "coordinates": [35.64503681642191, -22.302493081042527]}}, {"type": "Feature", "properties": {"norad_id": 32203, "name": "FENGYUN 1C DEB", "group": "fengyun-1c-debris", "lat": -65.56682252061684, "lon": 38.884986597567455, "alt_km": 529.5204675358827, "timestamp": "2025-12-08T23:34:04.255594+00:00", "meta": {"OBJECT_NAME": "FENGYUN 1C DEB", "OBJECT_ID": "1999-025CUZ", "EPOCH": "2025-12-08T03:48:07.848288", "MEAN_MOTION": 15.40242666, "ECCENTRICITY": 0.0146, "INCLINATION": 97.0168, "RA_OF_ASC_NODE": 233.8247, "ARG_OF_PERICENTER": 108.187, "MEAN_ANOMALY": 253.5334, "EPHEMERIS_TYPE": 0, "CLASSIFICATION_TYPE": "U", "NORAD_CAT_ID": 32203, "ELEMENT_SET_NO": 999, "REV_AT_EPOCH": 75027, "BSTAR": 0.00082304953, "MEAN_MOTION_DOT": 0.00048596, "MEAN_MOTION_DDOT": 0}, "tle": {"line1": "1 32203U 99025CUZ 25342.15842417  .00048596  00000+0  82305-3 0  9995", "line2": "2 32203  97.0168 233.8247 0146000 108.1870 253.5334 15.40242666750270"}}, "geometry": {"type": "Point", "coordinates": [38.884986597567455, -65.56682252061684]}}, {"type": "Feature", "properties": {"norad_id": 32205, "name": "FENGYUN 1C DEB", "group": "fengyun-1c-debris", "lat": -25.334918497712675, "lon": -8.86174927433127, "alt_km": 845.2600919591341, "timestamp": "2025-12-08T23:34:04.255604+00:00", "meta": {"OBJECT_NAME": "FENGYUN 1C DEB", "OBJECT_ID": "1999-025CVB", "EPOCH": "2025-12-08T06:47:29.461632", "MEAN_MOTION": 14.13907007, "ECCENTRICITY": 0.0010166, "INCLINATION": 98.6784, "RA_OF_ASC_NODE": 346.313, "ARG_OF_PERICENTER": 305.8127, "MEAN_ANOMALY": 72.5568, "EPHEMERIS_TYPE": 0, "CLASSIFICATION_TYPE": "U", "NORAD_CAT_ID": 32205, "ELEMENT_SET_NO": 999, "REV_AT_EPOCH": 94435, "BSTAR": 0.00030058079, "MEAN_MOTION_DOT": 5.27e-06, "MEAN_MOTION_DDOT": 0}, "tle": {"line1": "1 32205U 99025CVB 25342.28297988  .00000527  00000+0  30058-3 0  9998", "line2": "2 32205  98.6784 346.3130 0010166 305.8127  72.5568 14.13907007944356"}}, "geometry": {"type": "Point", "coordinates": [-8.86174927433127, -25.334918497712675]}}]}